{
  "type": "FeatureCollection",
  "features": [
    {
      "type": "Feature",
      "properties": {
        "norad_id": 30172,
        "name": "FENGYUN 1C DEB",
        "group": "fengyun-1c-debris",
        "lat": -33.80954247255571,
        "lon": -20.294366495036673,
        "alt_km": 897.4153026213698,
        "timestamp": "2025-12-20T03:42:47.667584+00:00",
        "meta_object_name": "FENGYUN 1C DEB",
        "meta_object_id": "1999-025UD",
        "meta_epoch": "2025-12-19T09:54:37.025856",
        "meta_mean_motion": 14.12494735,
        "meta_eccentricity": 0.0068765,
        "meta_inclination": 99.2348,
        "meta_ra_of_asc_node": 332.6866,
        "meta_arg_of_pericenter": 183.1499,
        "meta_mean_anomaly": 332.2652,
        "meta_ephemeris_type": 0,
        "meta_classification_type": "U",
        "meta_norad_cat_id": 30172,
        "meta_element_set_no": 999,
        "meta_rev_at_epoch": 96611,
        "meta_bstar": 0.0010569,
        "meta_mean_motion_dot": 1.95e-05,
        "meta_mean_motion_ddot": 0,
        "tle_line1": "1 30172U 99025UD  25353.41292854  .00001950  00000+0  10569-2 0  9998",
        "tle_line2": "2 30172  99.2348 332.6866 0068765 183.1499 332.2652 14.12494735966117"
      },
      "geometry": {
        "type": "Point",
        "coordinates": [
          -20.294366495036673,
          -33.80954247255571
        ]
      }
    },
    {
      "type": "Feature",
      "properties": {
        "norad_id": 30173,
        "name": "FENGYUN 1C DEB",
        "group": "fengyun-1c-debris",
        "lat": -77.61587090632052,
        "lon": -161.129492459515,
        "alt_km": 803.6065848730759,
        "timestamp": "2025-12-20T03:42:47.667594+00:00",
        "meta_object_name": "FENGYUN 1C DEB",
        "meta_object_id": "1999-025UE",
        "meta_epoch": "2025-12-18T17:03:56.332224",
        "meta_mean_motion": 14.11417427,
        "meta_eccentricity": 0.00809216,
        "meta_inclination": 98.9768,
        "meta_ra_of_asc_node": 63.4725,
        "meta_arg_of_pericenter": 271.6614,
        "meta_mean_anomaly": 218.5759,
        "meta_ephemeris_type": 0,
        "meta_classification_type": "U",
        "meta_norad_cat_id": 30173,
        "meta_element_set_no": 999,
        "meta_rev_at_epoch": 96633,
        "meta_bstar": 0.0012258119,
        "meta_mean_motion_dot": 2.244e-05,
        "meta_mean_motion_ddot": 0,
        "tle_line1": "1 30173U 99025UE  25352.71106866  .00002244  00000+0  12258-2 0  9992",
        "tle_line2": "2 30173  98.9768  63.4725 0080921 271.6614 218.5759 14.11417427966333"
      },
      "geometry": {
        "type": "Point",
        "coordinates": [
          -161.129492459515,
          -77.61587090632052
        ]
      }
    },
    {
      "type": "Feature",
      "properties": {
        "norad_id": 30174,
        "name": "FENGYUN 1C DEB",
        "group": "fengyun-1c-debris",
        "lat": -25.125726188078037,
        "lon": 147.84072250971008,
        "alt_km": 621.3254926743039,
        "timestamp": "2025-12-20T03:42:47.667615+00:00",
        "meta_object_name": "FENGYUN 1C DEB",
        "meta_object_id": "1999-025UF",
        "meta_epoch": "2025-12-19T16:32:36.536064",
        "meta_mean_motion": 14.81445681,
        "meta_eccentricity": 0.0018455,
        "meta_inclination": 98.7752,
        "meta_ra_of_asc_node": 143.1771,
        "meta_arg_of_pericenter": 22.1764,
        "meta_mean_anomaly": 351.9979,
        "meta_ephemeris_type": 0,
        "meta_classification_type": "U",
        "meta_norad_cat_id": 30174,
        "meta_element_set_no": 999,
        "meta_rev_at_epoch": 98471,
        "meta_bstar": 0.0025372,
        "meta_mean_motion_dot": 0.00019913,
        "meta_mean_motion_ddot": 0,
        "tle_line1": "1 30174U 99025UF  25353.68931176  .00019913  00000+0  25372-2 0  9992",
        "tle_line2": "2 30174  98.7752 143.1771 0018455  22.1764 351.9979 14.81445681984718"
      },
      "geometry": {
        "type": "Point",
        "coordinates": [
          147.84072250971008,
          -25.125726188078037
        ]
      }
    },
    {
      "type": "Feature",
      "properties": {
        "norad_id": 30175,
        "name": "FENGYUN 1C DEB",
        "group": "fengyun-1c-debris",
        "lat": -25.09340652515134,
        "lon": 54.65024747823562,
        "alt_km": 1039.3191404385307,
        "timestamp": "2025-12-20T03:42:47.667627+00:00",
        "meta_object_name": "FENGYUN 1C DEB",
        "meta_object_id": "1999-025UG",
        "meta_epoch": "2025-12-19T10:34:10.565184",
        "meta_mean_motion": 13.83873351,
        "meta_eccentricity": 0.0146555,
        "meta_inclination": 99.3803,
        "meta_ra_of_asc_node": 49.4979,
        "meta_arg_of_pericenter": 194.8691,
        "meta_mean_anomaly": 181.9345,
        "meta_ephemeris_type": 0,
        "meta_classification_type": "U",
        "meta_norad_cat_id": 30175,
        "meta_element_set_no": 999,
        "meta_rev_at_epoch": 95433,
        "meta_bstar": 0.00031975,
        "meta_mean_motion_dot": 3.4e-06,
        "meta_mean_motion_ddot": 0,
        "tle_line1": "1 30175U 99025UG  25353.44040006  .00000340  00000+0  31975-3 0  9991",
        "tle_line2": "2 30175  99.3803  49.4979 0146555 194.8691 181.9345 13.83873351954333"
      },
      "geometry": {
        "type": "Point",
        "coordinates": [
          54.65024747823562,
          -25.09340652515134
        ]
      }
    },
    {
      "type": "Feature",
      "properties": {
        "norad_id": 30177,
        "name": "FENGYUN 1C DEB",
        "group": "fengyun-1c-debris",
        "lat": -64.29840641053933,
        "lon": -44.632945035021336,
        "alt_km": 1366.1663670282041,
        "timestamp": "2025-12-20T03:42:47.667638+00:00",
        "meta_object_name": "FENGYUN 1C DEB",
        "meta_object_id": "1999-025UJ",
        "meta_epoch": "2025-12-19T07:40:13.465056",
        "meta_mean_motion": 13.62829592,
        "meta_eccentricity": 0.0451971,
        "meta_inclination": 98.627,
        "meta_ra_of_asc_node": 296.2385,
        "meta_arg_of_pericenter": 121.0304,
        "meta_mean_anomaly": 37.8552,
        "meta_ephemeris_type": 0,
        "meta_classification_type": "U",
        "meta_norad_cat_id": 30177,
        "meta_element_set_no": 999,
        "meta_rev_at_epoch": 93552,
        "meta_bstar": 0.00070895,
        "meta_mean_motion_dot": 1.071e-05,
        "meta_mean_motion_ddot": 0,
        "tle_line1": "1 30177U 99025UJ  25353.31960029  .00001071  00000+0  70895-3 0  9991",
        "tle_line2": "2 30177  98.6270 296.2385 0451971 121.0304  37.8552 13.62829592935526"
      },
      "geometry": {
        "type": "Point",
        "coordinates": [
          -44.632945035021336,
          -64.29840641053933
        ]
      }
    },
    {
      "type": "Feature",
      "properties": {
        "norad_id": 30178,
        "name": "FENGYUN 1C DEB",
        "group": "fengyun-1c-debris",
        "lat": 69.49434163309203,
        "lon": -166.1322362110385,
        "alt_km": 864.2454036774743,
        "timestamp": "2025-12-20T03:42:47.667648+00:00",
        "meta_object_name": "FENGYUN 1C DEB",
        "meta_object_id": "1999-025UK",
        "meta_epoch": "2025-12-19T12:01:44.155200",
        "meta_mean_motion": 13.58706855,
        "meta_eccentricity": 0.0280836,
        "meta_inclination": 102.2606,
        "meta_ra_of_asc_node": 228.6025,
        "meta_arg_of_pericenter": 111.6008,
        "meta_mean_anomaly": 8.6876,
        "meta_ephemeris_type": 0,
        "meta_classification_type": "U",
        "meta_norad_cat_id": 30178,
        "meta_element_set_no": 999,
        "meta_rev_at_epoch": 93263,
        "meta_bstar": 0.001515,
        "meta_mean_motion_dot": 1.371e-05,
        "meta_mean_motion_ddot": 0,
        "tle_line1": "1 30178U 99025UK  25353.50120550  .00001371  00000+0  15150-2 0  9995",
        "tle_line2": "2 30178 102.2606 228.6025 0280836 111.6008   8.6876 13.58706855932633"
      },
      "geometry": {
        "type": "Point",
        "coordinates": [
          -166.1322362110385,
          69.49434163309203
        ]
      }
    },
    {
      "type": "Feature",
      "properties": {
        "norad_id": 30181,
        "name": "FENGYUN 1C DEB",
        "group": "fengyun-1c-debris",
        "lat": 53.21652857765764,
        "lon": -90.5102781806994,
        "alt_km": 813.445747712799,
        "timestamp": "2025-12-20T03:42:47.667659+00:00",
        "meta_object_name": "FENGYUN 1C DEB",
        "meta_object_id": "1999-025UN",
        "meta_epoch": "2025-12-19T17:45:16.389792",
        "meta_mean_motion": 14.29292908,
        "meta_eccentricity": 0.0040025,
        "meta_inclination": 98.8435,
        "meta_ra_of_asc_node": 77.0499,
        "meta_arg_of_pericenter": 338.7092,
        "meta_mean_anomaly": 172.9606,
        "meta_ephemeris_type": 0,
        "meta_classification_type": "U",
        "meta_norad_cat_id": 30181,
        "meta_element_set_no": 999,
        "meta_rev_at_epoch": 97611,
        "meta_bstar": 0.0010497,
        "meta_mean_motion_dot": 2.648e-05,
        "meta_mean_motion_ddot": 0,
        "tle_line1": "1 30181U 99025UN  25353.73977303  .00002648  00000+0  10497-2 0  9997",
        "tle_line2": "2 30181  98.8435  77.0499 0040025 338.7092 172.9606 14.29292908976112"
      },
      "geometry": {
        "type": "Point",
        "coordinates": [
          -90.5102781806994,
          53.21652857765764
        ]
      }
    }
  ]
}